[{"OBJECT_NAME":"KINEIS-3C","OBJECT_ID":"2024-172A","EPOCH":"2026-03-09T20:22:22.104480","MEAN_MOTION":14.72318845,"ECCENTRICITY":0.00034983,"INCLINATION":98.0288,"RA_OF_ASC_NODE":159.8485,"ARG_OF_PERICENTER":99.6401,"MEAN_ANOMALY":260.5202,"EPHEMERIS_TYPE":0,"CLASSIFICATION_TYPE":"U","NORAD_CAT_ID":61220,"ELEMENT_SET_NO":999,"REV_AT_EPOCH":7845,"BSTAR":0.00048160166,"MEAN_MOTION_DOT":2.996e-5,"MEAN_MOTION_DDOT":0},{"OBJECT_NAME":"CZ-6A DEB","OBJECT_ID":"2024-140VT","EPOCH":"2026-03-09T14:52:01.921152","MEAN_MOTION":14.60446386,"ECCENTRICITY":0.0111501,"INCLINATION":89.0129,"RA_OF_ASC_NODE":282.8798,"ARG_OF_PERICENTER":226.2396,"MEAN_ANOMALY":132.9549,"EPHEMERIS_TYPE":0,"CLASSIFICATION_TYPE":"U","NORAD_CAT_ID":61354,"ELEMENT_SET_NO":999,"REV_AT_EPOCH":8056,"BSTAR":0.00058559,"MEAN_MOTION_DOT":3.114e-5,"MEAN_MOTION_DDOT":0}]
